STARLINK-37600          
1 69359U 26123G   26183.20684439  .00258033  00000+0  16366-2 0  9996
2 69359  53.1572 167.1355 0001042  96.2315 263.8824 15.75238009  4409
STARLINK-37599          
1 69360U 26123H   26183.07808137  .00358922  00000+0  17466-2 0  9996
2 69360  53.1573 167.0153 0001238  78.1042 282.0120 15.80884107  4392
STARLINK-37039          
1 69361U 26123J   26182.54935031  .00042721  00000+0  28049-3 0  9999
2 69361  53.1604 170.1359 0000965  49.1043 311.0061 15.75318049  4305
STARLINK-37040          
1 69362U 26123K   26183.25337384  .00297606  00000+0  14586-2 0  9990
2 69362  53.1570 165.9669 0000894  42.6936 317.4157 15.80893685  4423
STARLINK-37582          
1 69363U 26123L   26182.24606366  .00269284  00000+0  16992-2 0  9992
2 69363  53.1558 171.8034 0001367  98.8675 261.2500 15.75323310  4257
STARLINK-37309          
1 69364U 26123M   26182.25958222  .00343498  00000+0  21424-2 0  9991
2 69364  53.1571 171.1532 0002481 126.8538 233.2710 15.75376126  4263
STARLINK-37436          
1 69365U 26123N   26183.24009044  .00308842  00000+0  15082-2 0  9998
2 69365  53.1570 165.8779 0001733 115.8198 244.3004 15.80942241  4425
STARLINK-37581          
1 69366U 26123P   26183.18062807  .00283077  00000+0  13900-2 0  9997
2 69366  53.1573 166.2198 0001380 137.6216 222.4913 15.80892757  4411
STARLINK-37683          
1 69367U 26123Q   26183.22911832  .00199061  00000+0  12721-2 0  9993
2 69367  53.1561 166.5417 0000642  70.1573 289.9516 15.75243330  4411
STARLINK-37687          
1 69368U 26123R   26182.16088037  .00374991  00000+0  18024-2 0  9997
2 69368  53.1574 171.2333 0003758 166.5290 193.5834 15.81107222  4254
STARLINK-37631          
1 69369U 26123S   26183.25657973  .00158524  00000+0  10188-2 0  9995
2 69369  53.1594 165.9881 0001509  97.5469 262.5723 15.75244078  4425
STARLINK-37673          
1 69370U 26123T   26182.26412362  .00257343  00000+0  16277-2 0  9992
2 69370  53.1595 171.1836 0001166  68.7626 291.3519 15.75305102  4262
STARLINK-37645          
1 69371U 26123U   26182.94842134  .00366470  00000+0  22919-2 0  9994
2 69371  53.1584 167.6242 0001541 114.0897 246.0284 15.75247827  4371
STARLINK-37688          
1 69372U 26123V   26183.18826536  .00294592  00000+0  18579-2 0  9992
2 69372  53.1605 166.2684 0000709  57.2505 302.8583 15.75261784  4416
STARLINK-37685          
1 69373U 26123W   26182.98189965  .00217035  00000+0  10752-2 0  9990
2 69373  53.1567 167.1071 0001306  81.1335 278.9835 15.80882743  4384
STARLINK-37632          
1 69374U 26123X   26183.25003472 -.00061657  00000+0 -31043-3 0  9996
2 69374  53.1571 165.7557 0001065  49.2187  41.9536 15.80916947  5588
STARLINK-37454          
1 69375U 26123Y   26183.23294520  .00279266  00000+0  13687-2 0  9999
2 69375  53.1575 165.8269 0001323  94.6820 265.4354 15.80944402  4429
STARLINK-37485          
1 69376U 26123Z   26182.33336806 -.00109234  00000+0 -71661-3 0  9990
2 69376  53.1576 170.6239 0000888  74.3642  63.5013 15.75271939  5572
STARLINK-37439          
1 69377U 26123AA  26183.22508849  .00226379  00000+0  11189-2 0  9994
2 69377  53.1569 165.7739 0001426 107.7450 252.3729 15.80907316  4428
STARLINK-37376          
1 69378U 26123AB  26182.26379833  .00260116  00000+0  16411-2 0  9997
2 69378  53.1592 171.1789 0001081 100.4327 259.6815 15.75354491  4263
STARLINK-37383          
1 69379U 26123AC  26183.24296262  .00193421  00000+0  12361-2 0  9995
2 69379  53.1596 165.8911 0001533  89.5336 270.5860 15.75261074  4428
STARLINK-37411          
1 69380U 26123AD  26183.22643973  .00282670  00000+0  13918-2 0  9994
2 69380  53.1575 165.7820 0000765  85.3940 274.7171 15.80832879  4420
STARLINK-37427          
1 69381U 26123AE  26183.22234214  .00189894  00000+0  94412-3 0  9992
2 69381  53.1577 165.7538 0001669  96.2282 263.8931 15.80884387  4427
QIANFAN-165             
1 69382U 26124A   26183.09507439 -.01611017  00000+0 -97118+0 0  9993
2 69382  88.9981   0.3547 0009484 120.2940 239.9184 14.10532136  3921
QIANFAN-166             
1 69383U 26124B   26183.07954419 -.01682211  00000+0 -99214+0 0  9999
2 69383  88.9983   0.3527 0007244 139.0134 221.1597 14.11910793  3928
QIANFAN-167             
1 69384U 26124C   26183.22829521  .00000079  00000+0  32459-4 0  9998
2 69384  88.9986   0.3373 0003576 133.5235 226.6251 14.16528285  3941
QIANFAN-168             
1 69385U 26124D   26183.13972191  .00000086  00000+0  34899-4 0  9999
2 69385  88.9986   0.3427 0004129 110.7667 249.3965 14.17875303  3933
QIANFAN-169             
1 69386U 26124E   26183.13298957  .00000085  00000+0  34544-4 0  9997
2 69386  88.9986   0.3417 0004592 123.0753 237.0878 14.18289036  3930
QIANFAN-170             
1 69387U 26124F   26183.19146036  .00000053  00000+0  18559-4 0  9997
2 69387  88.9986   0.3318 0003947 107.0835 253.0787 14.19185655  3948
QIANFAN-171             
1 69388U 26124G   26183.03679297 -.01699285  00000+0 -95432+0 0  9995
2 69388  88.9980   0.3458 0004565 173.9901 186.1342 14.14624382  3922
